{
  "type": "FeatureCollection",
  "features": [
    {
      "type": "Feature",
      "properties": {
        "norad_id": 34722,
        "name": "COSMOS 2251 DEB",
        "group": "cosmos-2251-debris",
        "lat": 59.10917392449632,
        "lon": 8.769638005181411,
        "alt_km": 958.217871282176,
        "timestamp": "2025-12-10T14:53:37.482876+00:00",
        "meta_object_name": "COSMOS 2251 DEB",
        "meta_object_id": "1993-036YQ",
        "meta_epoch": "2025-12-10T01:16:07.902336",
        "meta_mean_motion": 14.11920598,
        "meta_eccentricity": 0.01672443,
        "meta_inclination": 73.873,
        "meta_ra_of_asc_node": 340.8603,
        "meta_arg_of_pericenter": 266.8841,
        "meta_mean_anomaly": 151.2497,
        "meta_ephemeris_type": 0,
        "meta_classification_type": "U",
        "meta_norad_cat_id": 34722,
        "meta_element_set_no": 999,
        "meta_rev_at_epoch": 86207,
        "meta_bstar": 0.0011883967,
        "meta_mean_motion_dot": 2.452e-05,
        "meta_mean_motion_ddot": 0,
        "tle_line1": "1 34722U 93036YQ  25344.05286924  .00002452  00000+0  11884-2 0  9999",
        "tle_line2": "2 34722  73.8730 340.8603 0167244 266.8841 151.2497 14.11920598862073"
      },
      "geometry": {
        "type": "Point",
        "coordinates": [
          8.769638005181411,
          59.10917392449632
        ]
      }
    },
    {
      "type": "Feature",
      "properties": {
        "norad_id": 34726,
        "name": "COSMOS 2251 DEB",
        "group": "cosmos-2251-debris",
        "lat": 73.90324193841263,
        "lon": 73.30493292146959,
        "alt_km": 669.8321948846278,
        "timestamp": "2025-12-10T14:53:37.482886+00:00",
        "meta_object_name": "COSMOS 2251 DEB",
        "meta_object_id": "1993-036YU",
        "meta_epoch": "2025-12-10T02:58:32.457792",
        "meta_mean_motion": 14.59465527,
        "meta_eccentricity": 0.00420967,
        "meta_inclination": 74.0291,
        "meta_ra_of_asc_node": 351.3133,
        "meta_arg_of_pericenter": 142.9873,
        "meta_mean_anomaly": 217.421,
        "meta_ephemeris_type": 0,
        "meta_classification_type": "U",
        "meta_norad_cat_id": 34726,
        "meta_element_set_no": 999,
        "meta_rev_at_epoch": 88464,
        "meta_bstar": 0.00055032613,
        "meta_mean_motion_dot": 2.613e-05,
        "meta_mean_motion_ddot": 0,
        "tle_line1": "1 34726U 93036YU  25344.12398678  .00002613  00000+0  55033-3 0  9995",
        "tle_line2": "2 34726  74.0291 351.3133 0042096 142.9873 217.4210 14.59465527884646"
      },
      "geometry": {
        "type": "Point",
        "coordinates": [
          73.30493292146959,
          73.90324193841263
        ]
      }
    },
    {
      "type": "Feature",
      "properties": {
        "norad_id": 34728,
        "name": "COSMOS 2251 DEB",
        "group": "cosmos-2251-debris",
        "lat": -56.288461259187606,
        "lon": 101.3296552109087,
        "alt_km": 693.8743272172887,
        "timestamp": "2025-12-10T14:53:37.482895+00:00",
        "meta_object_name": "COSMOS 2251 DEB",
        "meta_object_id": "1993-036YW",
        "meta_epoch": "2025-12-09T11:41:21.069888",
        "meta_mean_motion": 14.70794927,
        "meta_eccentricity": 0.00409671,
        "meta_inclination": 74.0171,
        "meta_ra_of_asc_node": 258.0914,
        "meta_arg_of_pericenter": 56.6298,
        "meta_mean_anomaly": 303.8783,
        "meta_ephemeris_type": 0,
        "meta_classification_type": "U",
        "meta_norad_cat_id": 34728,
        "meta_element_set_no": 999,
        "meta_rev_at_epoch": 88752,
        "meta_bstar": 0.0012390282,
        "meta_mean_motion_dot": 7.642e-05,
        "meta_mean_motion_ddot": 0,
        "tle_line1": "1 34728U 93036YW  25343.48704942  .00007642  00000+0  12390-2 0  9995",
        "tle_line2": "2 34728  74.0171 258.0914 0040967  56.6298 303.8783 14.70794927887529"
      },
      "geometry": {
        "type": "Point",
        "coordinates": [
          101.3296552109087,
          -56.288461259187606
        ]
      }
    },
    {
      "type": "Feature",
      "properties": {
        "norad_id": 34729,
        "name": "COSMOS 2251 DEB",
        "group": "cosmos-2251-debris",
        "lat": 16.494216009808685,
        "lon": 177.75943465091953,
        "alt_km": 614.716029808752,
        "timestamp": "2025-12-10T14:53:37.482904+00:00",
        "meta_object_name": "COSMOS 2251 DEB",
        "meta_object_id": "1993-036YX",
        "meta_epoch": "2025-12-10T07:44:58.384608",
        "meta_mean_motion": 14.82681902,
        "meta_eccentricity": 0.00118809,
        "meta_inclination": 74.0185,
        "meta_ra_of_asc_node": 3.2166,
        "meta_arg_of_pericenter": 123.7003,
        "meta_mean_anomaly": 250.6993,
        "meta_ephemeris_type": 0,
        "meta_classification_type": "U",
        "meta_norad_cat_id": 34729,
        "meta_element_set_no": 999,
        "meta_rev_at_epoch": 88422,
        "meta_bstar": 0.0026934281,
        "meta_mean_motion_dot": 0.00021789,
        "meta_mean_motion_ddot": 0,
        "tle_line1": "1 34729U 93036YX  25344.32289797  .00021789  00000+0  26934-2 0  9993",
        "tle_line2": "2 34729  74.0185   3.2166 0011880 123.7003 250.6993 14.82681902884223"
      },
      "geometry": {
        "type": "Point",
        "coordinates": [
          177.75943465091953,
          16.494216009808685
        ]
      }
    },
    {
      "type": "Feature",
      "properties": {
        "norad_id": 34732,
        "name": "COSMOS 2251 DEB",
        "group": "cosmos-2251-debris",
        "lat": -57.12112484885319,
        "lon": 70.87783980676488,
        "alt_km": 722.9134210961302,
        "timestamp": "2025-12-10T14:53:37.482913+00:00",
        "meta_object_name": "COSMOS 2251 DEB",
        "meta_object_id": "1993-036ZA",
        "meta_epoch": "2025-12-10T07:00:38.331648",
        "meta_mean_motion": 14.47296381,
        "meta_eccentricity": 0.00404387,
        "meta_inclination": 74.0451,
        "meta_ra_of_asc_node": 97.7594,
        "meta_arg_of_pericenter": 249.2333,
        "meta_mean_anomaly": 138.9201,
        "meta_ephemeris_type": 0,
        "meta_classification_type": "U",
        "meta_norad_cat_id": 34732,
        "meta_element_set_no": 999,
        "meta_rev_at_epoch": 88108,
        "meta_bstar": 0.00026368417,
        "meta_mean_motion_dot": 9.47e-06,
        "meta_mean_motion_ddot": 0,
        "tle_line1": "1 34732U 93036ZA  25344.29211032  .00000947  00000+0  26368-3 0  9995",
        "tle_line2": "2 34732  74.0451  97.7594 0040438 249.2333 138.9201 14.47296381881082"
      },
      "geometry": {
        "type": "Point",
        "coordinates": [
          70.87783980676488,
          -57.12112484885319
        ]
      }
    },
    {
      "type": "Feature",
      "properties": {
        "norad_id": 34736,
        "name": "COSMOS 2251 DEB",
        "group": "cosmos-2251-debris",
        "lat": 27.901287707635532,
        "lon": 49.601688577984504,
        "alt_km": 419.9604773023975,
        "timestamp": "2025-12-10T14:53:37.482922+00:00",
        "meta_object_name": "COSMOS 2251 DEB",
        "meta_object_id": "1993-036ZE",
        "meta_epoch": "2025-12-10T05:26:42.439776",
        "meta_mean_motion": 15.44989553,
        "meta_eccentricity": 0.00172881,
        "meta_inclination": 74.002,
        "meta_ra_of_asc_node": 41.7223,
        "meta_arg_of_pericenter": 349.0288,
        "meta_mean_anomaly": 11.0542,
        "meta_ephemeris_type": 0,
        "meta_classification_type": "U",
        "meta_norad_cat_id": 34736,
        "meta_element_set_no": 999,
        "meta_rev_at_epoch": 88409,
        "meta_bstar": 0.010676727,
        "meta_mean_motion_dot": 0.00542218,
        "meta_mean_motion_ddot": 0,
        "tle_line1": "1 34736U 93036ZE  25344.22688009  .00542218  00000+0  10677-1 0  9990",
        "tle_line2": "2 34736  74.0020  41.7223 0017288 349.0288  11.0542 15.44989553884092"
      },
      "geometry": {
        "type": "Point",
        "coordinates": [
          49.601688577984504,
          27.901287707635532
        ]
      }
    },
    {
      "type": "Feature",
      "properties": {
        "norad_id": 34738,
        "name": "COSMOS 2251 DEB",
        "group": "cosmos-2251-debris",
        "lat": -20.166408510835105,
        "lon": 141.18389289654672,
        "alt_km": 718.8319093178234,
        "timestamp": "2025-12-10T14:53:37.482931+00:00",
        "meta_object_name": "COSMOS 2251 DEB",
        "meta_object_id": "1993-036ZG",
        "meta_epoch": "2025-12-09T12:41:33.004608",
        "meta_mean_motion": 14.46291371,
        "meta_eccentricity": 0.00473111,
        "meta_inclination": 74.0141,
        "meta_ra_of_asc_node": 149.2671,
        "meta_arg_of_pericenter": 296.1263,
        "meta_mean_anomaly": 120.6858,
        "meta_ephemeris_type": 0,
        "meta_classification_type": "U",
        "meta_norad_cat_id": 34738,
        "meta_element_set_no": 999,
        "meta_rev_at_epoch": 87812,
        "meta_bstar": 0.00056224622,
        "meta_mean_motion_dot": 2.015e-05,
        "meta_mean_motion_ddot": 0,
        "tle_line1": "1 34738U 93036ZG  25343.52885422  .00002015  00000+0  56225-3 0  9999",
        "tle_line2": "2 34738  74.0141 149.2671 0047311 296.1263 120.6858 14.46291371878123"
      },
      "geometry": {
        "type": "Point",
        "coordinates": [
          141.18389289654672,
          -20.166408510835105
        ]
      }
    }
  ]
}